CENTISPACE-1 OBJECT C   
1 68352U 26060C   26095.73164918  .00000086  00000+0  43653-4 0  9997
2 68352  54.9852 331.2905 0012134 338.2549  21.7934 14.74891649  2086
CENTISPACE-1 OBJECT D   
1 68353U 26060D   26095.73166100  .00000086  00000+0  43679-4 0  9991
2 68353  54.9822 331.2869 0012407 338.9865  21.0623 14.74881966  2083
CENTISPACE-1 OBJECT E   
1 68354U 26060E   26096.40862123  .00000057  00000+0  39396-4 0  9994
2 68354  54.9777 328.5107 0012841 340.1409  19.9089 14.74860184  2180
CENTISPACE-1 OBJECT F   
1 68355U 26060F   26095.79860700  .00000084  00000+0  43343-4 0  9992
2 68355  54.9777 330.9993 0012870 336.1698  23.8704 14.74955235  2098
CENTISPACE-1 OBJECT G   
1 68356U 26060G   26096.88178341  .00000061  00000+0  39760-4 0  9990
2 68356  54.9907 326.5853 0013520 338.9161  21.1279 14.75165457  2254
CENTISPACE-1 OBJECT H   
1 68357U 26060H   26097.01645263  .00000018  00000+0  33661-4 0  9995
2 68357  54.9827 326.0135 0014040 341.3737  18.6747 14.75028204  2270
CENTISPACE-1 OBJECT J   
1 68358U 26060J   26096.60983417  .00000053  00000+0  38690-4 0  9992
2 68358  54.9827 327.6860 0014975 340.2535  19.7883 14.75158345  2211
CENTISPACE-1 OBJECT K   
1 68359U 26060K   26094.16969185  .00000130  00000+0  49717-4 0  9996
2 68359  54.9784 337.6182 0015038 331.1576  28.8591 14.75501463  1856
RASSVET-3 1             
1 68360U 26061A   26099.02871417  .00080725  10765-5  30713-3 0  9997
2 68360  82.2972  90.2247 0021554  26.0879 334.1472 15.87038143  2598
RASSVET-3 2             
1 68361U 26061B   26099.28436343  .00082902  12657-5  27339-3 0  9992
2 68361  82.2973  89.9463 0024805  12.9394 347.2509 15.89770672  2636
RASSVET-3 3             
1 68362U 26061C   26099.28420399  .00088671  16118-5  29235-3 0  9999
2 68362  82.2973  89.9458 0024649  12.7317 347.4571 15.89786916  2639
RASSVET-3 4             
1 68363U 26061D   26099.28401665  .00059648  11353-6  19672-3 0  9998
2 68363  82.2973  89.9457 0024736  12.6349 347.5537 15.89738718  2630
RASSVET-3 5             
1 68364U 26061E   26099.28381864  .00058606  71133-7  19308-3 0  9999
2 68364  82.2973  89.9450 0024741  12.6659 347.5228 15.89757227  2637
RASSVET-3 6             
1 68365U 26061F   26099.28287106  .00058197  57057-7  18970-3 0  9992
2 68365  82.2972  89.9437 0024352  12.8589 347.3298 15.89983070  2636
RASSVET-3 7             
1 68366U 26061G   26099.28350297  .00060880  16558-6  20038-3 0  9995
2 68366  82.2973  89.9448 0024465  12.7297 347.4587 15.89792690  2638
RASSVET-3 8             
1 68367U 26061H   26099.28364360  .00061591  19562-6  20286-3 0  9995
2 68367  82.2973  89.9448 0024514  12.5785 347.6093 15.89778356  2631
