[{"OBJECT_NAME":"CENTISPACE-1 OBJECT C","OBJECT_ID":"2026-060C","EPOCH":"2026-04-05T17:33:34.489152","MEAN_MOTION":14.74891649,"ECCENTRICITY":0.00121348,"INCLINATION":54.9852,"RA_OF_ASC_NODE":331.2905,"ARG_OF_PERICENTER":338.2549,"MEAN_ANOMALY":21.7934,"EPHEMERIS_TYPE":0,"CLASSIFICATION_TYPE":"U","NORAD_CAT_ID":68352,"ELEMENT_SET_NO":999,"REV_AT_EPOCH":208,"BSTAR":4.3653263e-5,"MEAN_MOTION_DOT":8.6e-7,"MEAN_MOTION_DDOT":0},{"OBJECT_NAME":"CENTISPACE-1 OBJECT D","OBJECT_ID":"2026-060D","EPOCH":"2026-04-05T17:33:35.510400","MEAN_MOTION":14.74881966,"ECCENTRICITY":0.00124072,"INCLINATION":54.9822,"RA_OF_ASC_NODE":331.2869,"ARG_OF_PERICENTER":338.9865,"MEAN_ANOMALY":21.0623,"EPHEMERIS_TYPE":0,"CLASSIFICATION_TYPE":"U","NORAD_CAT_ID":68353,"ELEMENT_SET_NO":999,"REV_AT_EPOCH":208,"BSTAR":4.367931e-5,"MEAN_MOTION_DOT":8.6e-7,"MEAN_MOTION_DDOT":0},{"OBJECT_NAME":"CENTISPACE-1 OBJECT E","OBJECT_ID":"2026-060E","EPOCH":"2026-04-06T09:48:24.874272","MEAN_MOTION":14.74860184,"ECCENTRICITY":0.00128411,"INCLINATION":54.9777,"RA_OF_ASC_NODE":328.5107,"ARG_OF_PERICENTER":340.1409,"MEAN_ANOMALY":19.9089,"EPHEMERIS_TYPE":0,"CLASSIFICATION_TYPE":"U","NORAD_CAT_ID":68354,"ELEMENT_SET_NO":999,"REV_AT_EPOCH":218,"BSTAR":3.9395794e-5,"MEAN_MOTION_DOT":5.7e-7,"MEAN_MOTION_DDOT":0},{"OBJECT_NAME":"CENTISPACE-1 OBJECT F","OBJECT_ID":"2026-060F","EPOCH":"2026-04-05T19:09:59.644800","MEAN_MOTION":14.74955235,"ECCENTRICITY":0.00128704,"INCLINATION":54.9777,"RA_OF_ASC_NODE":330.9993,"ARG_OF_PERICENTER":336.1698,"MEAN_ANOMALY":23.8704,"EPHEMERIS_TYPE":0,"CLASSIFICATION_TYPE":"U","NORAD_CAT_ID":68355,"ELEMENT_SET_NO":999,"REV_AT_EPOCH":209,"BSTAR":4.3343164e-5,"MEAN_MOTION_DOT":8.4e-7,"MEAN_MOTION_DDOT":0},{"OBJECT_NAME":"CENTISPACE-1 OBJECT G","OBJECT_ID":"2026-060G","EPOCH":"2026-04-06T21:09:46.086624","MEAN_MOTION":14.75165457,"ECCENTRICITY":0.00135205,"INCLINATION":54.9907,"RA_OF_ASC_NODE":326.5853,"ARG_OF_PERICENTER":338.9161,"MEAN_ANOMALY":21.1279,"EPHEMERIS_TYPE":0,"CLASSIFICATION_TYPE":"U","NORAD_CAT_ID":68356,"ELEMENT_SET_NO":999,"REV_AT_EPOCH":225,"BSTAR":3.9760246e-5,"MEAN_MOTION_DOT":6.1e-7,"MEAN_MOTION_DDOT":0},{"OBJECT_NAME":"CENTISPACE-1 OBJECT H","OBJECT_ID":"2026-060H","EPOCH":"2026-04-07T00:23:41.507232","MEAN_MOTION":14.75028204,"ECCENTRICITY":0.00140406,"INCLINATION":54.9827,"RA_OF_ASC_NODE":326.0135,"ARG_OF_PERICENTER":341.3737,"MEAN_ANOMALY":18.6747,"EPHEMERIS_TYPE":0,"CLASSIFICATION_TYPE":"U","NORAD_CAT_ID":68357,"ELEMENT_SET_NO":999,"REV_AT_EPOCH":227,"BSTAR":3.3661334e-5,"MEAN_MOTION_DOT":1.8e-7,"MEAN_MOTION_DDOT":0},{"OBJECT_NAME":"CENTISPACE-1 OBJECT J","OBJECT_ID":"2026-060J","EPOCH":"2026-04-06T14:38:09.672288","MEAN_MOTION":14.75158345,"ECCENTRICITY":0.00149753,"INCLINATION":54.9827,"RA_OF_ASC_NODE":327.686,"ARG_OF_PERICENTER":340.2535,"MEAN_ANOMALY":19.7883,"EPHEMERIS_TYPE":0,"CLASSIFICATION_TYPE":"U","NORAD_CAT_ID":68358,"ELEMENT_SET_NO":999,"REV_AT_EPOCH":221,"BSTAR":3.8690224e-5,"MEAN_MOTION_DOT":5.3e-7,"MEAN_MOTION_DDOT":0},{"OBJECT_NAME":"CENTISPACE-1 OBJECT K","OBJECT_ID":"2026-060K","EPOCH":"2026-04-04T04:04:21.375840","MEAN_MOTION":14.75501463,"ECCENTRICITY":0.00150386,"INCLINATION":54.9784,"RA_OF_ASC_NODE":337.6182,"ARG_OF_PERICENTER":331.1576,"MEAN_ANOMALY":28.8591,"EPHEMERIS_TYPE":0,"CLASSIFICATION_TYPE":"U","NORAD_CAT_ID":68359,"ELEMENT_SET_NO":999,"REV_AT_EPOCH":185,"BSTAR":4.9717379e-5,"MEAN_MOTION_DOT":1.3e-6,"MEAN_MOTION_DDOT":0},{"OBJECT_NAME":"RASSVET-3 1","OBJECT_ID":"2026-061A","EPOCH":"2026-04-09T00:41:20.904288","MEAN_MOTION":15.87038143,"ECCENTRICITY":0.00215548,"INCLINATION":82.2972,"RA_OF_ASC_NODE":90.2247,"ARG_OF_PERICENTER":26.0879,"MEAN_ANOMALY":334.1472,"EPHEMERIS_TYPE":0,"CLASSIFICATION_TYPE":"U","NORAD_CAT_ID":68360,"ELEMENT_SET_NO":999,"REV_AT_EPOCH":259,"BSTAR":0.00030712531,"MEAN_MOTION_DOT":0.00080725,"MEAN_MOTION_DDOT":1.076507e-6},{"OBJECT_NAME":"RASSVET-3 2","OBJECT_ID":"2026-061B","EPOCH":"2026-04-09T06:49:29.000352","MEAN_MOTION":15.89770672,"ECCENTRICITY":0.00248052,"INCLINATION":82.2973,"RA_OF_ASC_NODE":89.9463,"ARG_OF_PERICENTER":12.9394,"MEAN_ANOMALY":347.2509,"EPHEMERIS_TYPE":0,"CLASSIFICATION_TYPE":"U","NORAD_CAT_ID":68361,"ELEMENT_SET_NO":999,"REV_AT_EPOCH":263,"BSTAR":0.00027338727,"MEAN_MOTION_DOT":0.00082902,"MEAN_MOTION_DDOT":1.265682e-6},{"OBJECT_NAME":"RASSVET-3 3","OBJECT_ID":"2026-061C","EPOCH":"2026-04-09T06:49:15.224736","MEAN_MOTION":15.89786916,"ECCENTRICITY":0.00246498,"INCLINATION":82.2973,"RA_OF_ASC_NODE":89.9458,"ARG_OF_PERICENTER":12.7317,"MEAN_ANOMALY":347.4571,"EPHEMERIS_TYPE":0,"CLASSIFICATION_TYPE":"U","NORAD_CAT_ID":68362,"ELEMENT_SET_NO":999,"REV_AT_EPOCH":263,"BSTAR":0.00029235069,"MEAN_MOTION_DOT":0.00088671,"MEAN_MOTION_DDOT":1.611785e-6},{"OBJECT_NAME":"RASSVET-3 4","OBJECT_ID":"2026-061D","EPOCH":"2026-04-09T06:48:59.038560","MEAN_MOTION":15.89738718,"ECCENTRICITY":0.00247364,"INCLINATION":82.2973,"RA_OF_ASC_NODE":89.9457,"ARG_OF_PERICENTER":12.6349,"MEAN_ANOMALY":347.5537,"EPHEMERIS_TYPE":0,"CLASSIFICATION_TYPE":"U","NORAD_CAT_ID":68363,"ELEMENT_SET_NO":999,"REV_AT_EPOCH":263,"BSTAR":0.00019672179,"MEAN_MOTION_DOT":0.00059648,"MEAN_MOTION_DDOT":1.13533e-7},{"OBJECT_NAME":"RASSVET-3 5","OBJECT_ID":"2026-061E","EPOCH":"2026-04-09T06:48:41.930496","MEAN_MOTION":15.89757227,"ECCENTRICITY":0.00247413,"INCLINATION":82.2973,"RA_OF_ASC_NODE":89.945,"ARG_OF_PERICENTER":12.6659,"MEAN_ANOMALY":347.5228,"EPHEMERIS_TYPE":0,"CLASSIFICATION_TYPE":"U","NORAD_CAT_ID":68364,"ELEMENT_SET_NO":999,"REV_AT_EPOCH":263,"BSTAR":0.00019308221,"MEAN_MOTION_DOT":0.00058606,"MEAN_MOTION_DDOT":7.1133e-8},{"OBJECT_NAME":"RASSVET-3 6","OBJECT_ID":"2026-061F","EPOCH":"2026-04-09T06:47:20.059584","MEAN_MOTION":15.8998307,"ECCENTRICITY":0.00243527,"INCLINATION":82.2972,"RA_OF_ASC_NODE":89.9437,"ARG_OF_PERICENTER":12.8589,"MEAN_ANOMALY":347.3298,"EPHEMERIS_TYPE":0,"CLASSIFICATION_TYPE":"U","NORAD_CAT_ID":68365,"ELEMENT_SET_NO":999,"REV_AT_EPOCH":263,"BSTAR":0.00018969777,"MEAN_MOTION_DOT":0.00058197,"MEAN_MOTION_DDOT":5.7057e-8},{"OBJECT_NAME":"RASSVET-3 7","OBJECT_ID":"2026-061G","EPOCH":"2026-04-09T06:48:14.656608","MEAN_MOTION":15.8979269,"ECCENTRICITY":0.00244658,"INCLINATION":82.2973,"RA_OF_ASC_NODE":89.9448,"ARG_OF_PERICENTER":12.7297,"MEAN_ANOMALY":347.4587,"EPHEMERIS_TYPE":0,"CLASSIFICATION_TYPE":"U","NORAD_CAT_ID":68366,"ELEMENT_SET_NO":999,"REV_AT_EPOCH":263,"BSTAR":0.00020037881,"MEAN_MOTION_DOT":0.0006088,"MEAN_MOTION_DDOT":1.65579e-7},{"OBJECT_NAME":"RASSVET-3 8","OBJECT_ID":"2026-061H","EPOCH":"2026-04-09T06:48:26.807040","MEAN_MOTION":15.89778356,"ECCENTRICITY":0.00245141,"INCLINATION":82.2973,"RA_OF_ASC_NODE":89.9448,"ARG_OF_PERICENTER":12.5785,"MEAN_ANOMALY":347.6093,"EPHEMERIS_TYPE":0,"CLASSIFICATION_TYPE":"U","NORAD_CAT_ID":68367,"ELEMENT_SET_NO":999,"REV_AT_EPOCH":263,"BSTAR":0.00020286103,"MEAN_MOTION_DOT":0.00061591,"MEAN_MOTION_DDOT":1.9562e-7}]
